{"restaurants":[{"name":"Agapé","road":"51 Rue Jouffroy-d'Abbans","zipcode":"75017","locality":"Paris 17"},{"name":"Le Jardin des Remparts","road":"10 rue Hôtel-Dieu","zipcode":"21200","locality":"Beaune"},{"name":"Le Pré Catelan","road":"Route de Suresnes","zipcode":"75016","locality":"Paris"},{"name":"Le Clarence","road":"31 Avenue Franklin Delano Roosevelt","zipcode":"75008","locality":"Paris 08"},{"name":"Auberge de l'Île Barbe","road":"1 Place Notre-Dame","zipcode":"69009","locality":"Lyon 09"},{"name":"Aigue Marine","road":"5 r. M. -Berthelot","zipcode":"22220","locality":"Tréguier"},{"name":"Les Pêcheurs","road":"10 boulevard du Maréchal-Juin","zipcode":"06600","locality":"Antibes"},{"name":"Restaurant du Palais Royal","road":"110 Galerie de Valois - Jardin du Palais Royal","zipcode":"75001","locality":"Paris 01"},{"name":"L'Orangerie du Château","road":"1 Avenue du Docteur Jean Laigret","zipcode":"41000","locality":"Blois"},{"name":"JY'S","road":"17 r. de la Poissonnerie","zipcode":"68000","locality":"Colmar"},{"name":"Le Saint-Estève","road":"2250 route cézanne D17","zipcode":"13100","locality":"Le Tholonet"},{"name":"Fanny Rey & Jonathan Wahid","road":"12, boulevard Mirabeau","zipcode":"13210","locality":"SAINT REMY DE PROVENCE"},{"name":"Le Violon d'Ingres","road":"135 Rue Saint-Dominique","zipcode":"75007","locality":"Paris"},{"name":"Mère Brazier","road":"12 rue Royale","zipcode":"69001","locality":"LYON"},{"name":"Le Restaurant","road":"13 rue des Beaux-Arts","zipcode":"75006","locality":"Paris 06"},{"name":"Sur Mesure par Thierry Marx","road":"251 Rue Saint Honoré","zipcode":"75001","locality":"Paris"},{"name":"Hostellerie de l'Abbaye de la Celle","road":"10 Place Général de Gaulle","zipcode":"83170","locality":"La Celle"},{"name":"La Table de Franck Putelat","road":"80 chemin des Anglais","zipcode":"11000","locality":"Carcassonne"},{"name":"Le Saint-James","road":"3 pl. Camille-Hostein","zipcode":"33270","locality":"BOULIAC"},{"name":"La Liégeoise","road":"digue de mer","zipcode":"62930","locality":"Wimereux"},{"name":"Paul Bocuse","road":"40 Quai de la Plage","zipcode":"69660","locality":"Collonges-au-Mont-d'Or"},{"name":"Le 39V","road":"39 Avenue George V","zipcode":"75008","locality":"Paris 08"},{"name":"Christophe Bacquié","road":"Hotel du Castellet Route des Hauts du Camp","zipcode":"83330","locality":"Le Castellet"},{"name":"La Tour des Vents","road":"Le Moulin de Malfourat","zipcode":"24240","locality":"Monbazillac"},{"name":"La Bastide de Moustiers","road":"Parc naturel régional du Verdon, Chemin de Quinson","zipcode":"04360","locality":"Moustiers-Sainte-Marie"},{"name":"Le Moulin du Roc","road":"Avenue Eugène Le Roy","zipcode":"24530","locality":"Champagnac-de-Belair"},{"name":"Le Taillevent","road":"15 Rue Lamennais","zipcode":"75008","locality":"Paris"},{"name":"1217","road":"le bourg","zipcode":"69620","locality":"Bagnols"},{"name":"Assiette Champenoise","road":"40 av. Paul Vaillant-Couturier","zipcode":"51430","locality":"Tinqueux"},{"name":"Hostellerie Bérard","road":"Avenue Gabriel-Péri","zipcode":"83740","locality":"LA-CADIERE-D'AZUR"},{"name":"La Marelle","road":"1593 av. de Lyon","zipcode":"01960","locality":"PERONNAS"},{"name":"La Dame de Pic","road":"20 Rue du Louvre","zipcode":"75001","locality":"Paris 01"},{"name":"Le Pressoir","road":"7 r. de l'Hôpital","zipcode":"56890","locality":"Saint-Avé"},{"name":"Patrick Jeffroy","road":"20 rue du Kelenn","zipcode":"29660","locality":"Carantec"},{"name":"Paloma","road":"47 Avenue du Moulin de la Croix","zipcode":"06250","locality":"Mougins"},{"name":"Le Cloître","road":"Le Cloitre","zipcode":"04300","locality":"Mane"},{"name":"Le Quinzième - Cyril Lignac","road":"14 rue Cauchy","zipcode":"75015","locality":"Paris"},{"name":"Les Bas-Rupts","road":"181 rte de la Bresse","zipcode":"88400","locality":"Bas-Rupts"},{"name":"Auberge du Bon Laboureur","road":"6 r. Dr Bretonneau","zipcode":"37150","locality":"Chenonceaux"},{"name":"Bruno","road":"2350 route des Arcs, Campagne Mariette","zipcode":"83510","locality":"Lorgues"},{"name":"Têtedoie","road":"4 Rue Professeur Pierre Marion","zipcode":"69005","locality":"Lyon 05"},{"name":"G.a. au Manoir de Rétival","road":"2 rue St. Clair","zipcode":"76490","locality":"Caudebec-en-Caux"},{"name":"Les Fresques","road":"D18","zipcode":"24240","locality":"Monestier"},{"name":"L'Almandin","road":"Boulevard de l'Almandin","zipcode":"66750","locality":"Saint-Cyprien"},{"name":"Numéro 3","road":"3 rue du Général de Gaulle","zipcode":"78490","locality":"Le Tremblay-sur-Mauldre"},{"name":"Il Carpaccio","road":"37 avenue Hoche","zipcode":"75008","locality":"Paris 08"},{"name":"Les Tablettes de Jean-Louis Nomicos","road":"16 Avenue Bugeaud","zipcode":"75016","locality":"Paris"},{"name":"Le Fanal","road":"17 Avenue du Fontaulé","zipcode":"66650","locality":"Banyuls-sur-Mer"},{"name":"Le Magasin aux Vivres","road":"5 Avenue Ney","zipcode":"57000","locality":"Metz"},{"name":"Le Relais Bernard Loiseau","road":"2, rue d'Argentine","zipcode":"21210","locality":"Saulieu"},{"name":"Le Chiberta","road":"3 Rue Arsène Houssaye","zipcode":"75008","locality":"Paris 08"},{"name":"Carré des Feuillants","road":"14 rue de Castiglione","zipcode":"75001","locality":"Paris 01"},{"name":"Dominique Bouchet","road":"11 Rue Treilhard","zipcode":"75008","locality":"Paris"},{"name":"Le Quincangrogne","road":"7 Rue de l'Abreuvoir","zipcode":"77400","locality":"Dampmart"},{"name":"Sylvestre","road":"79 rue St-Dominique","zipcode":"75007","locality":"Paris"},{"name":"Ithurria","road":"pl. du Fronton","zipcode":"64250","locality":"Ainhoa"},{"name":"La Coopérative","road":"2A Route de Caladroy","zipcode":"66720","locality":"Bélesta"},{"name":"Le Moulin de l'Abbaye","road":"1 avenue Pierre de Bourdeilles","zipcode":"24310","locality":"BRANTOME"},{"name":"Maison Clovis","road":"19 bd Brotteaux","zipcode":"69006","locality":"Lyon"},{"name":"Le Petit Nice","road":"Anse de Maldormé - Corniche J. F. Kennedy","zipcode":"13007","locality":"Marseille 07"},{"name":"La Maison de Bournissac","road":"montée d'Eyragues","zipcode":"13550","locality":"Les Paluds-des-Noves"},{"name":"Yoann Conte","road":"13 Vieille-Route-des-Pensières","zipcode":"74290","locality":"Veyrier-du-Lac"},{"name":"Château de Pray","road":"Rue du Cèdre","zipcode":"37400","locality":"Amboise"},{"name":"Auguste","road":"54 r. Bourgogne","zipcode":"75007","locality":"Paris 07"},{"name":"En Marge","road":"1204 route de la Croix-Falgarde","zipcode":"31320","locality":"AUREVILLE"},{"name":"Relais de la Poste","road":"24 avenue de Maremne","zipcode":"40140","locality":"Magescq"},{"name":"Le Bénaton","road":"25 Rue du Faubourg-Bretonnière","zipcode":"21200","locality":"BEAUNE"},{"name":"Villa René Lalique","road":"18 Rue Bellevue","zipcode":"67290","locality":"Wingen-sur-Moder"},{"name":"L'Essentiel","road":"29 Rue Mirabeau","zipcode":"14800","locality":"DEAUVILLE"},{"name":"Le Pavillon des Boulevards","road":"120 r. Croix-de-Seguey","zipcode":"33000","locality":"Bordeaux"},{"name":"Gill","road":"9 quai de la Bourse","zipcode":"76000","locality":"Rouen"},{"name":"La Gouesnière","road":"1 Le Limonay","zipcode":"35350","locality":"Saint-Méloir-des-Ondes"},{"name":"Au Trou Gascon","road":"40 rue Taine","zipcode":"75012","locality":"Paris"},{"name":"La Barbacane","road":"Place Auguste-Pierre-Pont","zipcode":"11000","locality":"Carcassonne"},{"name":"Domaine de Rochevilaine","road":"à la Pointe de Pen Lan","zipcode":"56190","locality":"Billiers"},{"name":"Ivan Vautier","road":"3 avenue Henry-Chéron","zipcode":"14000","locality":"Caen"},{"name":"Auberge du Vieux Puits","road":"5 Avenue Saint-Victor","zipcode":"11360","locality":"Fontjoncouse"},{"name":"L'Oustau de Baumanière","road":"Village des Baux-de-Provence","zipcode":"13520","locality":"Les Baux-de-Provence"},{"name":"Domaine d'Auriac","road":"Route de Saint-Hilaire","zipcode":"11000","locality":"Carcassonne"},{"name":"Le Hittau","road":"1 rue du Nouaou","zipcode":"40230","locality":"SAINT-VINCENT-DE-TYROSSE"},{"name":"Raphaël Vionnet","road":"43 Avenue du Général Leclerc","zipcode":"74200","locality":"Thonon-les-Bains"},{"name":"Les Bacchanales","road":"247 avenue de Provence","zipcode":"06140","locality":"VENCE"},{"name":"Aux Pesked","road":"59 Rue du Légué","zipcode":"22000","locality":"Saint-Brieuc"},{"name":"L'Ambroisie","road":"9 Place des Vosges","zipcode":"75004","locality":"Paris"},{"name":"Auberge des Templiers","road":"D2007","zipcode":"45290","locality":"Les Bézards"},{"name":"Château de Sully","road":"D6","zipcode":"14400","locality":"Sully"},{"name":"1912","road":"bd de la Cahotte","zipcode":"14360","locality":"Trouville-sur-Mer"},{"name":"Stéphane Derbord","road":"10 Place du Président Wilson","zipcode":"21000","locality":"Dijon"},{"name":"Relais de la Poste","road":"21 rue du Gén. -de-Gaulle","zipcode":"67610","locality":"LA-WANTZENAU"},{"name":"La Table des Merville","road":"3 place Richard","zipcode":"31320","locality":"Castanet-Tolosan"},{"name":"Helen","road":"3 r.Berryer","zipcode":"75008","locality":"Paris"},{"name":"1920","road":"373 chemin des follières","zipcode":"74120","locality":"Megève"},{"name":"Mirazur","road":"30, Avenue Aristide Briand","zipcode":"06500","locality":"Menton"},{"name":"La Grand'Vigne","road":"chemin de Smith-Haut-Lafitte","zipcode":"33650","locality":"Martillac"},{"name":"Michel Chabran - La Grande Table","road":"29 Avenue du Quarante-Cinquième Parallèle","zipcode":"26600","locality":"Pont-de-l'Isère"},{"name":"Le Vivarais","road":"5 avenue Expilly","zipcode":"07600","locality":"VALS-LES-BAINS"},{"name":"L'Atelier d'Edmond","road":"au Fornet","zipcode":"73150","locality":"Val-d'Isère"},{"name":"Pic","road":"285 avenue Victor Hugo","zipcode":"26000","locality":"Valence"},{"name":"Jérôme Brochot","road":"Place Beaubernard","zipcode":"71300","locality":"Montceau-les-Mines"},{"name":"Auberge du Cheval Blanc","road":"4 Route de Wissembourg","zipcode":"67510","locality":"Lembach"},{"name":"Le Coquillage","road":"Lieu-dit Le Buot","zipcode":"35350","locality":"Saint-Méloir-des-Ondes"},{"name":"Le Gabriel","road":"42 Avenue Gabriel","zipcode":"75008","locality":"Paris"},{"name":"Auberge de l'Ill","road":"2 rue de Collonges-au-Mont d'Or","zipcode":"68970","locality":"Illhaeusern"},{"name":"Le Parc Les Crayères","road":"64 Boulevard Henry Vasnier","zipcode":"51100","locality":"Reims"},{"name":"L'Auberge des Glazicks","road":"7 rue de la Plage","zipcode":"29550","locality":"PLOMODIERN"},{"name":"Lasserre","road":"17 Avenue F. -D. -Roosevelt","zipcode":"75008","locality":"Paris 08"},{"name":"La Scène","road":"33 Avenue George V","zipcode":"75008","locality":"Paris"},{"name":"L'Amaryllis","road":"chemin de Martorey","zipcode":"71100","locality":"Saint-Rémy"},{"name":"Hostellerie Jérôme","road":"20 r. Comte de Cessole","zipcode":"06320","locality":"La Turbie"},{"name":"La Bonne Étape","road":"chemin du lac","zipcode":"04160","locality":"Château-Arnoux"},{"name":"MaSa","road":"112 avenue Victor-Hugo","zipcode":"92100","locality":"Boulogne-Billancourt"},{"name":"Girardin","road":"19 Rue des Têtes","zipcode":"68000","locality":"Colmar"},{"name":"Frédéric Simonin","road":"25 rue Bayen","zipcode":"75017","locality":"Paris"},{"name":"Le Kléber","road":"6 r. A. -Dumont","zipcode":"26400","locality":"Crest"},{"name":"La Palme d'Or","road":"73 Boulevard de la Croisette","zipcode":"06400","locality":"Cannes"},{"name":"Chapelle Saint-Martin","road":"33, Saint Martin du Fault","zipcode":"87510","locality":"Nieul"},{"name":"Auberge de la Tour","road":"Place de la Fontaine","zipcode":"15220","locality":"MARCOLES"},{"name":"Anne de Bretagne","road":"163, Boulevard de la Tara","zipcode":"44770","locality":"La Plaine-sur-Mer"},{"name":"Régis et Jacques Marcon","road":"Larsiallas","zipcode":"43290","locality":"SAINT-BONNET-LE-FROID"},{"name":"Le Sénéchal","road":"Sauveterre de Rouergue","zipcode":"12800","locality":"Sauveterre-de-Rouergue"},{"name":"Auberge de la Diligence","road":"4 r. de la Libération","zipcode":"49440","locality":"Loiré"},{"name":"La Villa Madie","road":"av. du Revestel","zipcode":"13260","locality":"Cassis"},{"name":"L'Arcane","road":"39 Rue Lamarck","zipcode":"75018","locality":"Paris"},{"name":"L'Aparté","road":"21 Rue de l’Europe","zipcode":"31850","locality":"MONTRABE"},{"name":"Les Explorateurs","road":"place du Slalom","zipcode":"73440","locality":"VAL THORENS"},{"name":"Neige d'Été","road":"12 Rue de l'Amiral Roussin","zipcode":"75015","locality":"Paris 15"},{"name":"Les Terraillers","road":"11 Route Chemin-Neuf","zipcode":"06410","locality":"Biot"},{"name":"Le Pré du Moulin","road":"rte de Ste-Cécile-les-Vignes","zipcode":"84830","locality":"Sérignan-du-Comtat"},{"name":"Ô Saveurs","road":"8 place Ormeaux au village","zipcode":"31180","locality":"ROUFFIAC-TOLOSAN"},{"name":"La Table de l'Espadon","road":"15 Place Vendôme","zipcode":"75001","locality":"Paris"},{"name":"La Table de La Butte","road":"10 rue de la Mer","zipcode":"29260","locality":"PLOUIDER"},{"name":"Hélène Darroze","road":"4 rue d'Assas","zipcode":"75006","locality":"Paris 06"},{"name":"Ed.Em","road":"4 imp. Chenevottes","zipcode":"21190","locality":"Chassagne-Montrachet"},{"name":"Pur' - Jean-François Rouquette","road":"5 r. de la Paix","zipcode":"75002","locality":"Paris 02"},{"name":"Le Bois sans Feuilles","road":"728 Route de Villerest","zipcode":"42155","locality":"Ouches"},{"name":"64° Le Restaurant","road":"9-13 Rue du Général de Gaulle","zipcode":"68240","locality":"Kaysersberg"},{"name":"Le Roc Alto","road":"Quartier La Ville","zipcode":"05350","locality":"SAINT-VERAN"},{"name":"L'Atelier de Gaztelur","road":"Chemin de Gastelhur","zipcode":"64200","locality":"Arcangues"},{"name":"Origine","road":"26 Rampe Cauchoise","zipcode":"76000","locality":"Rouen"},{"name":"Le Gourmet de Sèze","road":"125 Rue de Sèze","zipcode":"69006","locality":"Lyon"},{"name":"Le P'tit Polyte","road":"2 Rue de la Chapelle","zipcode":"38860","locality":"Les Deux Alpes"},{"name":"Hostellerie de Plaisance","road":"5 place du Clocher","zipcode":"33330","locality":"Saint-Emilion"},{"name":"La Table du Gourmet","road":"5 rue 1ère Armée","zipcode":"68340","locality":"Riquewihr"},{"name":"La Mare aux Oiseaux","road":"223 RUE DU CHEF DE L'ILE Fedrun","zipcode":"44720","locality":"Saint-Joachim"},{"name":"La Lorraine","road":"80 rue Principale","zipcode":"57330","locality":"Zoufftgen"},{"name":"Au Crocodile","road":"10 rue de L'Outre","zipcode":"67000","locality":"STRASBOURG"},{"name":"Le Lido","road":"42 av. Napoléon-III","zipcode":"20110","locality":"Propriano"},{"name":"Le Bistro des Saveurs","road":"35 Rue de Sélestat","zipcode":"67210","locality":"Obernai"},{"name":"Jin","road":"6 Rue de la Sourdière","zipcode":"75001","locality":"Paris"},{"name":"Le Pré - Xavier Beaudiment","road":"3 Route de la Baraque","zipcode":"63830","locality":"Durtol"},{"name":"La Maison dans le Parc","road":"3 r. Ste-Catherine","zipcode":"54000","locality":"Nancy"},{"name":"Le 1947","road":"Cheval Blanc Courchevel - Le Jardin Alpin","zipcode":"73120","locality":"Courchevel 1850"},{"name":"La Marine","road":"3 r. Marie-Lemonnier","zipcode":"85330","locality":"L'Herbaudière"},{"name":"Le Vieux Logis","road":"Le Bourg","zipcode":"24510","locality":"Trémolat"},{"name":"La Chèvre d'Or","road":"r. du Barri","zipcode":"06360","locality":"Èze"},{"name":"Le Grand Bleu","road":"43 av. de la Gare","zipcode":"24200","locality":"Sarlat-la-Canéda"},{"name":"La Table de Manville","road":"Domaine de Manville - D27","zipcode":"13520","locality":"LES-BAUX-DE-PROVENCE"},{"name":"Auberge de la Charme","road":"12 r. de la Charme","zipcode":"21370","locality":"Prenois"},{"name":"Auberge du Pont d'Acigné","road":"D392","zipcode":"35530","locality":"Noyal-sur-Vilaine"},{"name":"Skab","road":"7 Rue de la République","zipcode":"30000","locality":"nimes"},{"name":"La Table de l'Alpaga","road":"66 Allée des Marmousets","zipcode":"74120","locality":"Megève"},{"name":"Copenhague","road":"142 AVENUE DES CHAMPS ELYSEES","zipcode":"75008","locality":"PARIS"},{"name":"Le Saint-Martin","road":"Avenue des Templiers","zipcode":"06140","locality":"Vence"},{"name":"Alan Geaam","road":"19 Rue Lauriston","zipcode":"75016","locality":"Paris"},{"name":"Auberge des Saints Pères","road":"212 av. de Nonneville","zipcode":"93600","locality":"Aulnay-sous-Bois"},{"name":"Le Pavé d'Auge","road":"D49","zipcode":"14430","locality":"Beuvron-en-Auge"},{"name":"Elsa","road":"Monte-Carlo Beach - Avenue Princesse Grace","zipcode":"06190","locality":"Roquebrune Cap-Martin"},{"name":"La Ferme de l'Hospital","road":"rte du golf","zipcode":"74160","locality":"Bossey"},{"name":"I Salti","road":"route du Reginu","zipcode":"20226","locality":"Belgodère"},{"name":"Flaveurs","road":"32 Grande-Rue","zipcode":"26000","locality":"Valence"},{"name":"Les Trois Soleils de Montal","road":"St-Jean-Lespinasse","zipcode":"46400","locality":"Saint-Céré"},{"name":"La Palmeraie","road":"81 Boulevard de Gigaro","zipcode":"83420","locality":"La Croix-Valmer"},{"name":"Auberge du Cellier","road":"1 Rue de Sainte-Eugénie","zipcode":"66720","locality":"Montner"},{"name":"Apicius","road":"20 r. d'Artois","zipcode":"75008","locality":"PARIS"},{"name":"Une Île","road":"9 r. Max-Richard","zipcode":"49000","locality":"Angers"},{"name":"Auberge La Fenière","road":"D943","zipcode":"84160","locality":"Cadenet"},{"name":"Stéphane Carbone","road":"14 r. de Courtonne","zipcode":"14000","locality":"Caen"},{"name":"Christopher Coutanceau","road":"Promenade de la Concurrence","zipcode":"17000","locality":"La Rochelle"},{"name":"La Table du Connétable","road":"4 Rue du Connétable","zipcode":"60500","locality":"Chantilly"},{"name":"L'Axel","road":"43 r. de France","zipcode":"77300","locality":"Fontainebleau"},{"name":"La Maison des Bois - Marc Veyrat","road":"Chemin Rural de Manigod au Col de la Croix Fry","zipcode":"74230","locality":"Manigod"},{"name":"Auberge Grand'Maison","road":"1 r. Léon-le-Cerf","zipcode":"22530","locality":"Mûr-de-Bretagne"},{"name":"La Table du 11","road":"8 rue de la chancellerie","zipcode":"78000","locality":"Versailles"},{"name":"L'Étang du Moulin","road":"5 chemin de l'Etang du Moulin","zipcode":"25210","locality":"Bonnétage"},{"name":"Les Trois Rochers","road":"16 rue du Phare","zipcode":"29120","locality":"Sainte-Marine"},{"name":"Aida","road":"1 r. Pierre Leroux","zipcode":"75007","locality":"Paris 07"},{"name":"L'Esquisse","road":"21 rue Royale","zipcode":"74000","locality":"Annecy"},{"name":"Likoké","road":"7 rte de Païolive","zipcode":"07140","locality":"Les Vans"},{"name":"Louison","road":"2750 route de la cride","zipcode":"13610","locality":"Le Puy-Sainte-Réparade"},{"name":"Restaurant des Rois","road":"5 Boulevard du Maréchal Leclerc","zipcode":"06310","locality":"Beaulieu-sur-Mer"},{"name":"Le Beaulieu","road":"34 Bis Place République","zipcode":"72000","locality":"Le Mans"},{"name":"Le Champ des Lunes","road":"route de Roquefraîche","zipcode":"84360","locality":"Lauris"},{"name":"La Réserve Rimbaud","road":"820 Avenue de Saint-Maur","zipcode":"34000","locality":"Montpellier"},{"name":"Maison Jeunet","road":"9 r. de l'Hôtel-de-Ville","zipcode":"39600","locality":"Arbois"},{"name":"Casadelmar","road":"Route de la Plage de Palombaggia","zipcode":"20137","locality":"Porto-Vecchio"},{"name":"Le Vivier","road":"800 cours F. Peyre (rte de Carpentras)","zipcode":"84800","locality":"L'Isle-sur-la-Sorgue"},{"name":"Le Passe Temps","road":"52 Rue Tronchet","zipcode":"69006","locality":"Lyon"},{"name":"L'Atelier Yssoirien","road":"39 Boulevard Triozon-Bayle","zipcode":"63500","locality":"Issoire"},{"name":"Albert 1er","road":"38 rte du Bouchet","zipcode":"74400","locality":"Chamonix-Mont-Blanc"},{"name":"La Balette","road":"rte de Port-Vendres","zipcode":"66190","locality":"Collioure"},{"name":"Qui plume la Lune","road":"50 r. Amelot","zipcode":"75011","locality":"Paris 11"},{"name":"Buerehiesel","road":"dans le parc de l'Orangerie","zipcode":"67000","locality":"Strasbourg"},{"name":"Dan B. - La Table de Ventabren","road":"r. F. -Mistral","zipcode":"13122","locality":"Ventabren"},{"name":"Astrance","road":"4 r. Beethoven","zipcode":"75016","locality":"Paris"},{"name":"Quai des Saveurs","road":"69 rue de la Gare","zipcode":"57300","locality":"Hagondange"},{"name":"Prairial","road":"11 Rue Chavanne","zipcode":"69001","locality":"Lyon"},{"name":"Le Chabichou","road":"90 Route des Chenus","zipcode":"73120","locality":"Courchevel 1850"},{"name":"Château de Mirambeau","road":"1 Avenue des Comtes Duchatel","zipcode":"17150","locality":"Mirambeau"},{"name":"Serge Vieira","road":"Château du Couffour","zipcode":"15110","locality":"Chaudes-Aigues"},{"name":"Georges Blanc","road":"pl. du Marché","zipcode":"01540","locality":"Vonnas"},{"name":"Guy Savoy","road":"Monnaie de Paris11 Quai de Conti","zipcode":"75006","locality":"Paris"},{"name":"Les Climats","road":"41 rue de Lille","zipcode":"75007","locality":"Paris 07"},{"name":"Le 7ème Continent","road":"35 av. Gén. -de-Gaulle","zipcode":"68170","locality":"Rixheim"},{"name":"Domaine des Séquoias","road":"54 Vie-de-Boussieu","zipcode":"38300","locality":"Ruy"},{"name":"L'Arnsbourg","road":"Untermuhlthal","zipcode":"57230","locality":"Baerenthal"},{"name":"Jean-Luc Tartarin","road":"Square Saint-Roch","zipcode":"76600","locality":"Le Havre"},{"name":"1131","road":"D 33","zipcode":"21360","locality":"La Bussière-sur-Ouche"},{"name":"Auberge de la Brie","road":"14 av. Alphonse Boulingre","zipcode":"77860","locality":"Couilly-Pont-aux-Dames"},{"name":"Le Kaïku","road":"17 r. de la République","zipcode":"64500","locality":"Saint-Jean-de-Luz"},{"name":"Le St-Placide","road":"6 place du poncel","zipcode":"35400","locality":"Saint-Malo"},{"name":"Radio","road":"43 av. P. et M.-Curie","zipcode":"63400","locality":"Chamalières"},{"name":"Au 14 Février","road":"2 r. du Portail","zipcode":"36100","locality":"Saint-Valentin"},{"name":"Le Meurice Alain Ducasse","road":"228 Rue de Rivoli","zipcode":"75001","locality":"Paris"},{"name":"L'Odas","road":"Passage Maurice Lenfant","zipcode":"76000","locality":"Rouen"},{"name":"Passage 53","road":"53 passage des Panoramas","zipcode":"75002","locality":"Paris"},{"name":"Le Georges","road":"22 pl. des Épars","zipcode":"28000","locality":"CHARTRES"},{"name":"Dyades au Domaine des Étangs","road":"Les Etangs","zipcode":"16310","locality":"MASSIGNAC"},{"name":"Le Castellaras","road":"461 chemin Peymeyan","zipcode":"83440","locality":"Fayence"},{"name":"Le Haut-Allier","road":"LE PONT D ALLEYRAS","zipcode":"43580","locality":"Alleyras"},{"name":"Le Jasmin","road":"Lieu-dit Lalande","zipcode":"47140","locality":"Saint-Sylvestre-sur-Lot"},{"name":"Le Cerisier","road":"3 rue de la Gare","zipcode":"62840","locality":"LAVENTIE"},{"name":"La Table Saint-Crescent","road":"route de Perpignan","zipcode":"11100","locality":"Narbonne"},{"name":"Maison Christian Étienne","road":"10 Rue de Mons","zipcode":"84000","locality":"Avignon"},{"name":"Mavrommatis","road":"42 rue Daubenton","zipcode":"75005","locality":"Paris 05"},{"name":"Antoine","road":"10 av. de New-York","zipcode":"75116","locality":"Paris 16"},{"name":"L'Amphitryon","road":"127 r. du Col. -Müller","zipcode":"56100","locality":"Lorient"},{"name":"Le Carré d'Alethius","road":"4 r. Paul-Bertois","zipcode":"07800","locality":"Charmes-sur-Rhône"},{"name":"Alexandre","road":"2 rue Xavier Tronc","zipcode":"30128","locality":"Garons"},{"name":"Les Terrasses de Lyon","road":"25, montée Saint BArthelémy","zipcode":"69005","locality":"Lyon 05"},{"name":"Le Domaine du Colombier","road":"270 Chemin de Malombre","zipcode":"26780","locality":"Malataverne"},{"name":"Maison Rostang","road":"20 rue Rennequin","zipcode":"75017","locality":"Paris"},{"name":"Maison Decoret","road":"15 rue du Parc","zipcode":"03200","locality":"Vichy"},{"name":"Lucas Carton","road":"9 pl. de la Madeleine","zipcode":"75008","locality":"Paris 08"},{"name":"Auberge à la Bonne Idée","road":"3 rue des Meuniers","zipcode":"60350","locality":"SAINT-JEAN-AUX-BOIS"},{"name":"La Chassagnette","road":"route du Sambuc","zipcode":"13200","locality":"ARLES"},{"name":"L'Épuisette","road":"158 Vallon-des-Auffes","zipcode":"13007","locality":"Marseille"},{"name":"Flocons de Sel","road":"1775 rte du Leutaz","zipcode":"74120","locality":"Megève"},{"name":"Flaveur","road":"25 Rue Gubernatis","zipcode":"06000","locality":"Nice"},{"name":"Chez Michèle","road":"57 rue Principale","zipcode":"57810","locality":"Languimberg"},{"name":"Les Rosiers","road":"32 av. Beau Soleil","zipcode":"64200","locality":"Biarritz"},{"name":"Loiseau des Ducs","road":"3 Rue Vauban","zipcode":"21000","locality":"Dijon"},{"name":"L'Abeille","road":"10 Avenue d'Iéna","zipcode":"75016","locality":"Paris 16"},{"name":"Le Candille","road":"bd C. Rebuffel","zipcode":"06250","locality":"Mougins"},{"name":"La Passagère","road":"33 boulevard E. -Baudoin","zipcode":"06160","locality":"Juan-les-Pins"},{"name":"Le Strasbourg","road":"24 r. du Col. -Teyssier","zipcode":"57230","locality":"Bitche"},{"name":"L'Escarbille","road":"8 Rue de Vélizy","zipcode":"92190","locality":"Meudon"},{"name":"Le Millénaire","road":"4 rue Bertin","zipcode":"51100","locality":"Reims"},{"name":"Cobéa","road":"11 r. Raymond Losserand","zipcode":"75014","locality":"Paris 14"},{"name":"Auberge Frankenbourg","road":"13 r. Gén. de Gaulle","zipcode":"67730","locality":"La Vancelle"},{"name":"Alcyone","road":"1 Place Daviel","zipcode":"13002","locality":"MARSEILLE"},{"name":"Manoir de la Boulaie","road":"33 rue Chapelle St-Martin","zipcode":"44115","locality":"HAUTE-GOULAINE"},{"name":"La Nouvelle Auberge","road":"9 route Nationale","zipcode":"68230","locality":"Wihr-au-Val"},{"name":"Château d'Adoménil","road":"","zipcode":"54300","locality":"Lunéville"},{"name":"Frédéric Doucet","road":"2 avenue de la Libération","zipcode":"71120","locality":"Charolles"},{"name":"Restaurant du Château","road":"15 avenue des Reynats","zipcode":"24650","locality":"Chancelade"},{"name":"J.-M. Pérochon","road":"63 avenue de la Grand'Roche","zipcode":"85470","locality":"Brétignolles-sur-Mer"},{"name":"La Bastide St-Antoine","road":"48 av. Henri-Dunant","zipcode":"06130","locality":"Grasse"},{"name":"Ô Flaveurs","road":"Château de Chilly","zipcode":"74140","locality":"Douvaine"},{"name":"La Table de Patrick Raingeard","road":"1312 av. Raymond-Poincaré","zipcode":"06360","locality":"EZE-BORD-DE-MER"},{"name":"Maison Kieny","road":"7 Rue du Général de Gaulle","zipcode":"68400","locality":"Riedisheim"},{"name":"Domaine des Hauts de Loire","road":"79 rue Gilbert Navard","zipcode":"41150","locality":"Onzain"},{"name":"L'Auberge Basque","road":"quartier Helbarron","zipcode":"64310","locality":"Saint-Pée-sur-Nivelle"},{"name":"Shang Palace","road":"10 Avenue d'Iéna","zipcode":"75016","locality":"Paris 16"},{"name":"La Côte Saint-Jacques","road":"14 faubourg de Paris","zipcode":"89300","locality":"Joigny"},{"name":"La Scène Thélème","road":"18 Rue Troyon","zipcode":"75017","locality":"PARIS"},{"name":"Restaurant de Lauzun","road":"3 bd de l'Esplanade","zipcode":"34150","locality":"Gignac"},{"name":"La Table d'Olivier","road":"3 r. St-Ambroise","zipcode":"19100","locality":"Brive-la-Gaillarde"},{"name":"Le George","road":"31 Avenue George V","zipcode":"75008","locality":"Paris"},{"name":"Les Trois Dômes","road":"20 quai Gailleton","zipcode":"69002","locality":"Lyon"},{"name":"La Grenouillère","road":"19 r. de la Grenouillère","zipcode":"62170","locality":"La Madelaine-sous-Montreuil"},{"name":"Maison Prévôt","road":"353 av. de Verdun","zipcode":"84300","locality":"Cavaillon"},{"name":"Le Puits St-Jacques","road":"av. Victor-Capoul","zipcode":"32600","locality":"Pujaudran"},{"name":"Guy Lassausaie","road":"r. de Belle-Sise","zipcode":"69380","locality":"Chasselay"},{"name":"Table des Frères Ibarboure","road":"chemin Ttalienea","zipcode":"64210","locality":"Bidart"},{"name":"Py-r","road":"19 descente de la Halle-aux-Poissons","zipcode":"31000","locality":"Toulouse"},{"name":"L'Atelier de Joël Robuchon - Étoile","road":"133 av. des Champs-Élysées","zipcode":"75008","locality":"Paris"},{"name":"Roscanvec","road":"17 r. des Halles","zipcode":"56000","locality":"Vannes"},{"name":"La Bastide de Capelongue","road":"Chemin des Cabanes","zipcode":"84480","locality":"Bonnieux"},{"name":"Terre-Mer","road":"16 r. du Jeu-de-Paume","zipcode":"56400","locality":"Auray"},{"name":"La Promenade","road":"2 promenade Jean-Jaurès","zipcode":"31590","locality":"Verfeil"},{"name":"Umami","road":"8 r. des Dentelles","zipcode":"67000","locality":"Strasbourg"},{"name":"SaQuaNa","road":"22 pl. Hamelin","zipcode":"14600","locality":"Honfleur"},{"name":"Le Gambetta","road":"12 r. Gambetta","zipcode":"49400","locality":"Saumur"},{"name":"La Table des Blot - Auberge du Château","road":"1 Grande-Rue","zipcode":"78720","locality":"Dampierre-en-Yvelines"},{"name":"Le Bistrot de Lagarde","road":"rte d'Apt","zipcode":"84400","locality":"Lagarde-d'Apt"},{"name":"La Tour","road":"31 Nouvelle-Place","zipcode":"18300","locality":"Sancerre"},{"name":"L'Alchémille","road":"53 rte de Lapoutroie","zipcode":"68240","locality":"Kaysersberg"},{"name":"Hostellerie de Levernois","road":"15 r. du Golf","zipcode":"21200","locality":"Levernois"},{"name":"Michel Trama","road":"52 r. Royale","zipcode":"47270","locality":"Puymirol"},{"name":"Le Puits du Trésor","road":"21 rte des Quatre-Châteaux","zipcode":"11600","locality":"Lastours"},{"name":"Ze Kitchen Galerie","road":"4 r. des Grands-Augustins","zipcode":"75006","locality":"Paris"},{"name":"Mariottat","road":"25 r. L.-Vivent","zipcode":"47000","locality":"Agen"},{"name":"L'Aubergade","road":"78 rte Nationale","zipcode":"80480","locality":"Dury"},{"name":"Le Mas du Langoustier","road":"","zipcode":"83400","locality":"Hyères"},{"name":"Auberge du Dun","road":"3 rte de Dieppe","zipcode":"76740","locality":"Le Bourg-Dun"},{"name":"Le Village","road":"3 Grande-Rue","zipcode":"78160","locality":"Marly-le-Roi"},{"name":"Jérémy Galvan","road":"Rue du Boeuf","zipcode":"69005","locality":"Lyon 05"},{"name":"Meulien","road":"1 bis av. des Alpes","zipcode":"71700","locality":"Tournus"},{"name":"Aux Terrasses","road":"18 av. du 23-Janvier","zipcode":"71700","locality":"Tournus"},{"name":"La Rastègue","road":"48 bd du Levant","zipcode":"83230","locality":"Bormes-les-Mimosas"},{"name":"La Petite Maison de Cucuron","road":"pl. de l'Étang","zipcode":"84160","locality":"Cucuron"},{"name":"L'Éveil des Sens","road":"429 bd Paul-Lintier","zipcode":"53100","locality":"Mayenne"},{"name":"Haut Bonheur de la Table","road":"18 Grand-Place","zipcode":"59670","locality":"Cassel"},{"name":"Le Château de Sable","road":"38 r. de l'Europe","zipcode":"29840","locality":"Porspoder"},{"name":"Mickaël Féval","road":"11 Petite-Rue-St-Jean","zipcode":"13100","locality":"Aix-en-Provence"},{"name":"Auberge du Paradis","road":"Le Plâtre-Durand","zipcode":"71570","locality":"Saint-Amour-Bellevue"},{"name":"Saturne","road":"17 r. N.-D.-des-Victoires","zipcode":"75002","locality":"Paris"},{"name":"L'Aromate","road":"2 r. Gustave Deloye","zipcode":"06000","locality":"Nice"},{"name":"La Roya","road":"plage de la Roya","zipcode":"20217","locality":"Saint-Florent"},{"name":"Le Sérac","road":"22 r. de la Comtesse","zipcode":"74170","locality":"Saint-Gervais-les-Bains"},{"name":"L'Atlantide 1874 - Maison Guého","road":"5 r. de l'Hermitage","zipcode":"44100","locality":"Nantes"},{"name":"Le Park 45","road":"45 bd de la Croisette","zipcode":"06400","locality":"Cannes"},{"name":"Les Pyrénées","road":"19 pl. Ch.-de-Gaulle","zipcode":"64220","locality":"Saint-Jean-Pied-de-Port"},{"name":"Le Prieuré","road":"r. de la Mairie","zipcode":"42820","locality":"Ambierle"},{"name":"Le Bon Accueil","road":"32 Grande-Rue","zipcode":"25160","locality":"Malbuisson"},{"name":"Le Jules Verne","road":"2<E>ème</E> étage Tour Eiffel","zipcode":"75007","locality":"Paris"},{"name":"Château de la Treyne","road":"","zipcode":"46200","locality":"Lacave"},{"name":"En Pleine Nature","road":"6 pl. de la Mairie","zipcode":"31130","locality":"Fonsegrives"},{"name":"Château Blanchard","road":"36 rte de St-Galmier","zipcode":"42140","locality":"Chazelles-sur-Lyon"},{"name":"La Gloire","road":"74 av. du Gén.-de-Gaulle","zipcode":"45200","locality":"Montargis"},{"name":"Pages","road":"4 r. Auguste-Vacquerie","zipcode":"75016","locality":"Paris"},{"name":"Table - Bruno Verjus","road":"3 r. de Prague","zipcode":"75012","locality":"Paris"},{"name":"Vieux Pont","road":"","zipcode":"12390","locality":"Belcastel"},{"name":"Le Camélia","road":"7 quai Georges Clemenceau","zipcode":"78380","locality":"Bougival"},{"name":"David Toutain","road":"29 r. Surcouf","zipcode":"75007","locality":"Paris"},{"name":"Septime","road":"80 r. de Charonne","zipcode":"75011","locality":"Paris"},{"name":"L'Orée de la Forêt","road":"255 r. de la Forêt","zipcode":"60600","locality":"Étouy"},{"name":"La Table des Cordeliers","road":"1 r. des Cordeliers","zipcode":"32100","locality":"Condom"},{"name":"Brikéténia","road":"142 r. de l'Église","zipcode":"64210","locality":"Guéthary"},{"name":"Auberge Le Prieuré","road":"4 Grand'Rue","zipcode":"47310","locality":"Moirax"},{"name":"Auberge du Vert Mont","road":"1318 r. du Mont-Noir","zipcode":"59299","locality":"Boeschepe"},{"name":"Le Chiquito","road":"3 r. de l'Oise, La Bonneville","zipcode":"95540","locality":"Méry-sur-Oise"},{"name":"À Contre Sens","road":"8-10 r. des Croisiers","zipcode":"14000","locality":"Caen"},{"name":"Lou Cigalon-Maison Martin","road":"6 bd Carnot","zipcode":"06560","locality":"Valbonne"},{"name":"ES","road":"91 r. de Grenelle","zipcode":"75007","locality":"Paris"},{"name":"Le Favre d'Anne","road":"21 bd du Mar.-Foch","zipcode":"49000","locality":"Angers"},{"name":"La Marande","road":"lieu-dit Mirande","zipcode":"71260","locality":"Montbellet"},{"name":"Au 14 Février","road":"36 r. du Bœuf","zipcode":"","locality":"Lyon 05"},{"name":"Le Belvédère","road":"11 rte du Maquis-Jean-Pierre","zipcode":"12340","locality":"Bozouls"},{"name":"Le Moulin d'Alotz","road":"chemin Alotz-Errota","zipcode":"64200","locality":"Alotz"},{"name":"La Closerie","road":"bd des Platanes","zipcode":"84240","locality":"Ansouis"},{"name":"La Coquerie","road":"1 chemin du Cimetière-Marin","zipcode":"34200","locality":"Sète"},{"name":"Intuition","road":"1 r. Alsace-Lorraine","zipcode":"50000","locality":"Saint-Lô"},{"name":"Baumanière 1850","road":"rte de Bellecôte","zipcode":"73120","locality":"Courchevel 1850"},{"name":"Auberge St-Jean","road":"8 r. du Pont","zipcode":"33420","locality":"Saint-Jean-de-Blaignac"},{"name":"Racine","road":"6 pl. Godinot","zipcode":"51100","locality":"Reims"},{"name":"Gaya Rive Gauche par Pierre Gagnaire","road":"44 r. du Bac","zipcode":"75007","locality":"Paris"},{"name":"Château du Mont Joly","road":"6 r. du Mont-Joly","zipcode":"39100","locality":"Sampans"},{"name":"L'Émulsion","road":"57 rte de Lyon","zipcode":"38080","locality":"Saint-Alban-de-Roche"},{"name":"Les Tables de Gaspard","road":"r. Principale","zipcode":"05600","locality":"St-Crépin"},{"name":"Étincelles - La Gentilhommière","road":"","zipcode":"24440","locality":"Sainte-Sabine"},{"name":"Clovis","road":"21 Grand-Rue","zipcode":"06140","locality":"Tourrettes-sur-Loup"},{"name":"L'Océan","road":"43 bd Thiers","zipcode":"64500","locality":"Saint-Jean-de-Luz"},{"name":"Le Montgomerie","road":"356 rte de l'Altiport","zipcode":"73120","locality":"Courchevel 1850"},{"name":"La Robe","road":"3 pl. Reveillère-Lepeaux","zipcode":"85600","locality":"Montaigu"},{"name":"Auberge St-Walfrid","road":"58 r. de Grosbliederstroff","zipcode":"57200","locality":"Sarreguemines"},{"name":"Cayola","road":"76 promenade de Cayola","zipcode":"85180","locality":"Talmont-Saint-Hilaire"},{"name":"Au Souper Fin","road":"1 rte de Clères","zipcode":"76690","locality":"Frichemesnil"},{"name":"Rodolphe","road":"35 r. Percière","zipcode":"76000","locality":"Rouen"},{"name":"Palégrié","road":"Les Ritons","zipcode":"38250","locality":"Corrençon-en-Vercors"},{"name":"La Table de Chaintré","road":"72 pl. du Luminaire","zipcode":"71570","locality":"Chaintré"},{"name":"L'Essentiel","road":"8 r. de la Clarté","zipcode":"24000","locality":"Périgueux"},{"name":"L'Atelier de Joël Robuchon - St-Germain","road":"5 r. de Montalembert","zipcode":"75007","locality":"Paris"},{"name":"Le Lièvre Gourmand","road":"28 quai du Châtelet","zipcode":"45000","locality":"Orléans"},{"name":"La Ribaudière","road":"2 pl. du Port","zipcode":"16200","locality":"Bourg-Charente"},{"name":"Le Grand Restaurant - Jean-François Piège","road":"7 r. d'Aguesseau","zipcode":"75008","locality":"Paris"},{"name":"Le Cerf","road":"30 r. du Gén.-de-Gaulle","zipcode":"67520","locality":"Marlenheim"},{"name":"Maison Crouzil et Hôtel L'Écrin","road":"20 les Quais","zipcode":"22130","locality":"Plancoët"},{"name":"U Santa Marina","road":"Marina di Santa Giulia","zipcode":"20137","locality":"Porto-Vecchio"},{"name":"Le Marcq","road":"944 av. de la République","zipcode":"59700","locality":"Marcq-en-Barœul"},{"name":"Le Pousse-Pied","road":"84 bd des Vendéens","zipcode":"85360","locality":"La Tranche-sur-Mer"},{"name":"Le Pot d'Étain","road":"4 av. de la République","zipcode":"90400","locality":"Danjoutin"},{"name":"Château de Codignat","road":"Bort l'Etang","zipcode":"63190","locality":"Bort-l'Étang"},{"name":"Azimut","road":"273 r. de la Madelon","zipcode":"73120","locality":"Courchevel-Saint-Bon"},{"name":"Avel Vor","road":"25 r. de Locmalo","zipcode":"56290","locality":"Port-Louis"},{"name":"Les Chênes Verts","road":"rte de Villecroze","zipcode":"83690","locality":"Tourtour"},{"name":"L'Aquarelle","road":"71 A rte du Montil","zipcode":"17920","locality":"Breuillet"},{"name":"Le Pavillon","road":"av. du Verger","zipcode":"62520","locality":"Le Touquet-Paris-Plage"},{"name":"Transparence \"La Table de Patrick Fréchin\"","road":"28 r. Stanislas","zipcode":"54000","locality":"Nancy"},{"name":"Pertica","road":"15 pl. de la République","zipcode":"41100","locality":"Vendôme"},{"name":"Hostellerie Les Gorges de Pennafort","road":"8660 RD 25","zipcode":"83830","locality":"Callas"},{"name":"Pont de l'Ouysse","road":"D23","zipcode":"46200","locality":"Lacave"},{"name":"Le Baudelaire","road":"8 rue Duphot","zipcode":"75001","locality":"Paris 01"},{"name":"Faventia","road":"3100 route de Bagnols-en-Forêt","zipcode":"83440","locality":"Tourrettes"},{"name":"Château de Courban","road":"7 rue du Lavoir","zipcode":"21520","locality":"Courban"},{"name":"Le M","road":"22 r. du Cdt-Drogou","zipcode":"29200","locality":"Brest"},{"name":"L'Oasis","road":"6 rue Jean-Honoré Carle","zipcode":"06210","locality":"La Napoule"},{"name":"Les Hautes Roches","road":"86 quai de Loire","zipcode":"37210","locality":"Rochecorbon"},{"name":"Le Pergolèse","road":"40 Rue Pergolèse","zipcode":"75116","locality":"Paris"},{"name":"La Promenade","road":"11 rue du Savoureulx","zipcode":"37350","locality":"Le Petit-Pressigny"},{"name":"Les Morainières","road":"route de Marétel","zipcode":"73170","locality":"Jongieux"},{"name":"Xavier Mathieu","road":"Route de Murs","zipcode":"84220","locality":"Joucas"},{"name":"Le Prince Noir - Vivien Durand","road":"1 rue du Prince Noir","zipcode":"33310","locality":"Lormont"},{"name":"La Table de la Bergerie","road":"La Bergerie","zipcode":"49380","locality":"Champ-sur-Layon"},{"name":"Lamartine","road":"Route du Tunnel du Chat","zipcode":"73370","locality":"Le Bourget du Lac"},{"name":"L'Ekrin by Laurent Azoulay","road":"Route de la Montée","zipcode":"73550","locality":"MERIBEL"},{"name":"Alain Llorca","road":"350 Route de Saint-Paul","zipcode":"06480","locality":"La Colle-sur-Loup"},{"name":"Pierre Gagnaire","road":"6 Rue Balzac","zipcode":"75008","locality":"Paris 08"},{"name":"Le Clos des Sens","road":"13 r. J. -Mermoz","zipcode":"74940","locality":"Annecy"},{"name":"La Madeleine","road":"1 Rue Alsace-Lorraine","zipcode":"89100","locality":"Sens"},{"name":"Greuze","road":"1 r. A. Thibaudet","zipcode":"71700","locality":"Tournus"},{"name":"Ar Men Du","road":"47 rue des îles","zipcode":"29920","locality":"Névez"},{"name":"La Chaumière","road":"346 av. du Mar. -Juin","zipcode":"39100","locality":"Dole"},{"name":"Auberge de Clochemerle","road":"Rue Gabriel-Chevallier","zipcode":"69460","locality":"VAUX-EN-BEAUJOLAIS"},{"name":"Auberge La Pomme d'Api","road":"49 r. Verderel","zipcode":"29250","locality":"Saint-Pol-de-Léon"},{"name":"Pierre Orsi","road":"Place Kléber","zipcode":"69006","locality":"Lyon 06"},{"name":"La Voile","road":"chemin de la Quessine","zipcode":"83350","locality":"Ramatuelle"},{"name":"La Gourmandière - La Table d'Olivier","road":"D126","zipcode":"56000","locality":"Vannes"},{"name":"Apicius","road":"Marché Saint Pierre 1 étage","zipcode":"63000","locality":"Clermont-Ferrand"},{"name":"Arpège","road":"84 Rue de Varenne","zipcode":"75007","locality":"Paris"},{"name":"Aux Anges","road":"6 Place Georges Clemenceau","zipcode":"42300","locality":"Roanne"},{"name":"L'Orangerie","road":"31 Avenue George-V","zipcode":"75008","locality":"Paris"},{"name":"Penati al Baretto","road":"9 rue Balzac","zipcode":"75008","locality":"Paris 08"},{"name":"Hostellerie du Rosenmeer","road":"45 avenue de la Gare","zipcode":"67560","locality":"ROSHEIM"},{"name":"L'Olivier","road":"25 Route des Carles","zipcode":"83990","locality":"Saint-Tropez"},{"name":"Le Chantecler","road":"37 Promenade des Anglais","zipcode":"06000","locality":"NICE"},{"name":"Grand Hôtel du Lion d'Or","road":"69 r. Clemenceau","zipcode":"41200","locality":"Romorantin-Lanthenay"},{"name":"Le Carmin","road":"4B Place Carnot","zipcode":"21200","locality":"Beaune"},{"name":"Hervé Busset","road":"D901","zipcode":"12320","locality":"Conques"},{"name":"Benoit","road":"20 Rue St-Martin","zipcode":"75004","locality":"Paris 04"},{"name":"Une Table au Sud","road":"2 quai du Port","zipcode":"13002","locality":"Marseille"},{"name":"Le Grand Cerf","road":"50 rte Nationale","zipcode":"51500","locality":"Montchenot"},{"name":"Le Jardin de Benjamin","road":"Route de Salernes","zipcode":"83510","locality":"Lorgues"},{"name":"Auberge au Boeuf","road":"Rue de l'Eglise","zipcode":"67770","locality":"Sessenheim"},{"name":"Les Fresques","road":"13 Avenue des Mateirons","zipcode":"74500","locality":"Évian-les-Bains"},{"name":"Château de Mercuès","road":"Route du Château","zipcode":"46090","locality":"Mercuès"},{"name":"La Licorne Royale","road":"27 Place Isaac Benserade","zipcode":"27480","locality":"Lyons-la-Forêt"},{"name":"Jérôme Nutile - Le Mas de Boudan","road":"351 Chemin du Mas de Boudan","zipcode":"30000","locality":"Nîmes"},{"name":"Maximin Hellio","road":"64 Rue Gambetta","zipcode":"14800","locality":"DEAUVILLE"},{"name":"Le Saison","road":"1 imp. du Vieux-Bourg","zipcode":"35760","locality":"Saint-Grégoire"},{"name":"Domaine de Clairefontaine","road":"chemin des Fontanettes","zipcode":"38121","locality":"Chonas-l'Amballan"},{"name":"L'Auberge de la Pomme","road":"44 rue de l' eure","zipcode":"27340","locality":"Les Damps"},{"name":"La Table d'Uzès","road":"18 rue du Docteur Blanchard","zipcode":"30700","locality":"Uzès"},{"name":"Alléno Paris au Pavillon Ledoyen","road":"8 avenue Dutuit","zipcode":"75008","locality":"Paris"},{"name":"Stéphane Tournié - Les Jardins de l'Opéra","road":"1 place du Capitole","zipcode":"31000","locality":"Toulouse"},{"name":"Initial","road":"24 Rue Saint-Manvieu","zipcode":"14000","locality":"Caen"},{"name":"Loiseau rive Gauche","road":"5 rue de Bourgogne","zipcode":"75007","locality":"Paris 07"},{"name":"La Table","road":"32 Rue de la Barre","zipcode":"59000","locality":"Lille"},{"name":"L'Atelier du Peintre","road":"1 Rue Schongauer","zipcode":"68000","locality":"Colmar"},{"name":"Les Ducs de Lorraine","road":"5 av. Provence","zipcode":"88000","locality":"Épinal"},{"name":"Le Domaine de la Corniche","road":"5 rte de la Corniche","zipcode":"78270","locality":"Rolleboise"},{"name":"Hostellerie la Montagne","road":"10 rue Pisseloup","zipcode":"52330","locality":"COLOMBEY-LES-DEUX-EGLISES"},{"name":"L'O des Vignes","road":"r. du Bourg","zipcode":"71960","locality":"Fuissé"},{"name":"L'Atelier de Jean-Luc Rabanel","road":"7 r. des Carmes","zipcode":"13200","locality":"Arles"},{"name":"La Vague d'Or","road":"Plage de Bouillabaisse","zipcode":"83990","locality":"Saint-Tropez"},{"name":"Le Mascaret","road":"1 r. de Bas","zipcode":"50560","locality":"Blainville-sur-Mer"},{"name":"Nakatani","road":"27 Rue Pierre Leroux","zipcode":"75007","locality":"PARIS"},{"name":"Château Cordeillan-Bages","road":"Route des châteaux","zipcode":"33250","locality":"Pauillac"},{"name":"Julien Binz","road":"7 Rue des Cigognes","zipcode":"68770","locality":"Ammerschwihr"},{"name":"Le Petit Hôtel du Grand Large","road":"11 quai St-Ivy","zipcode":"56510","locality":"Portivy"},{"name":"Auberge Tiegezh","road":"7 Place de la Gare","zipcode":"56380","locality":"Guer"},{"name":"Le Moulin de la Gorce","road":"D17","zipcode":"87800","locality":"La Roche-l'Abeille"},{"name":"1741","road":"22 Quai des Bateliers","zipcode":"67000","locality":"Strasbourg"},{"name":"Logis de la Cadène","road":"Place du Marche au Bois","zipcode":"33330","locality":"Saint Emilion"},{"name":"Auberge St-Laurent","road":"1 rue Fontaine","zipcode":"68510","locality":"Sierentz"},{"name":"La Ville Blanche","road":"La Ville Blanche","zipcode":"22300","locality":"Rospez"},{"name":"Le Colombier","road":"r. Loucheur","zipcode":"76550","locality":"Offranville"},{"name":"Maison Lameloise","road":"36 pl. d'Armes","zipcode":"71150","locality":"Chagny"},{"name":"Thierry Drapeau","road":"La Chabotterie","zipcode":"85260","locality":"Saint-Sulpice-le-Verdon"},{"name":"Le Moulin des Quatre Saisons","road":"r. Gallieni","zipcode":"72200","locality":"La Flèche"},{"name":"Restaurant H","road":"13 r. Jean-Beausire","zipcode":"75004","locality":"Paris"},{"name":"Sushi B","road":"5 r. Rameau","zipcode":"75002","locality":"Paris"},{"name":"Divellec","road":"18 r. Fabert","zipcode":"75007","locality":"Paris"},{"name":"Quinsou","road":"33 r. de l'Abbé-Grégoire","zipcode":"75006","locality":"Paris"},{"name":"JAN","road":"12 Rue Lascaris","zipcode":"06000","locality":"Nice"},{"name":"Jérôme Feck","road":"19 pl. Mgr-Tissier","zipcode":"51000","locality":"Châlons-en-Champagne"},{"name":"Ken Kawasaki","road":"15 r. Caulaincourt","zipcode":"75018","locality":"Paris"},{"name":"Pertinence","road":"29 r. de l'Exposition","zipcode":"75007","locality":"Paris"},{"name":"La Merise","road":"7 r. d'Eschbach","zipcode":"67580","locality":"Laubach"},{"name":"L'Auberge de Bagatelle","road":"489 av. Bollée","zipcode":"72000","locality":"Le Mans"},{"name":"Le Prieuré","road":"7, place du Chapitre","zipcode":"30400","locality":"Villeneuve-lès-Avignon"},{"name":"Takao Takano","road":"33 Rue Malesherbes","zipcode":"69006","locality":"Lyon 06"},{"name":"La Renaissance","road":"20 av. 2e-Division-Blindée","zipcode":"61200","locality":"Argentan"},{"name":"Loiseau des Vignes","road":"31 Rue Jean Francois Maufoux","zipcode":"21200","locality":"Beaune"},{"name":"Maximilien","road":"19a rte Ostheim","zipcode":"68340","locality":"Zellenberg"},{"name":"Le Gindreau","road":"D5","zipcode":"46150","locality":"Saint-Médard"},{"name":"Alain Ducasse au Plaza Athénée","road":"25 avenue Montaigne","zipcode":"75008","locality":"Paris"},{"name":"Le Clair de la Plume","road":"2 Place du Mail","zipcode":"26230","locality":"Grignan"},{"name":"Relais Louis XIII","road":"8 Rue des Grands Augustins","zipcode":"75006","locality":"Paris"},{"name":"Le Manoir du Lys","road":"D235","zipcode":"61140","locality":"Bagnoles-de-l'Orne"},{"name":"Les Clefs d'Argent","road":"333 Avenue des Martyrs de la Résistance","zipcode":"40000","locality":"Mont-de-Marsan"},{"name":"L'Amphitryon","road":"chemin de Gramont","zipcode":"31770","locality":"Colomiers"},{"name":"Le Bouche à Oreille","road":"11 r. de la Chapelle","zipcode":"91150","locality":"Boutervilliers"},{"name":"Le Clocher des Pères","road":"D213","zipcode":"73130","locality":"Saint-Martin-sur-la-Chambre"},{"name":"Le Foch","road":"37 bd Foch","zipcode":"51100","locality":"Reims"},{"name":"La Table d'Eugène","road":"18 r. Eugène-Sue","zipcode":"75018","locality":"Paris"},{"name":"Les Prés d'Eugénie - Michel Guérard","road":"pl. de l'Impératrice","zipcode":"40320","locality":"Eugénie-les-Bains"},{"name":"Jean-Claude Leclerc","road":"12 rue St-Adjutor","zipcode":"63000","locality":"Clermont-Ferrand"},{"name":"Villa Archange","road":"Rue de l'Ouest","zipcode":"06110","locality":"Le Cannet"},{"name":"La Matelote","road":"80 Boulevard Ste Beuve","zipcode":"62200","locality":"BOULOGNE-SUR-MER"},{"name":"La Grange de Belle-Église","road":"28 bd René-Aimé-Lagabrielle","zipcode":"60540","locality":"Belle-Église"},{"name":"Les Jardins de l'Espadon","road":"15 place Vendôme","zipcode":"75001","locality":"Paris"},{"name":"Le Figuier de St-Esprit","road":"7, Promenade Amiral de Grasse","zipcode":"06600","locality":"Antibes"},{"name":"SEPT","road":"7 pl. St-Sernin","zipcode":"31000","locality":"Toulouse"},{"name":"La Table de Nans","road":"corniche du Liouquet","zipcode":"13600","locality":"La Ciotat"},{"name":"Le Bec au Cauchois","road":"22 Rue André Fiquet","zipcode":"76540","locality":"Valmont"},{"name":"L'Arôme","road":"3 rue St-Philippe-du-Roule","zipcode":"75008","locality":"Paris 08"},{"name":"Les Cèdres","road":"25 Rue Henri MACHON","zipcode":"26600","locality":"Granges-les-Beaumont"},{"name":"Les Bories","road":"rte de l'Abbaye de Sénanque","zipcode":"84220","locality":"Gordes"},{"name":"Le Grand Véfour","road":"17 rue de Beaujolais","zipcode":"75001","locality":"Paris"},{"name":"Le Belrose","road":"Boulevard des Crêtes","zipcode":"83580","locality":"Gassin"},{"name":"Le Carrousel","road":"14 rue du Pont de Morge","zipcode":"63350","locality":"MARINGUES"},{"name":"Le Pressoir d'Argent - Gordon Ramsay","road":"2,5 Place de la Comédie","zipcode":"33000","locality":"Bordeaux"},{"name":"Le Patio","road":"10 bd de la Plage","zipcode":"33120","locality":"Arcachon"},{"name":"Le Brittany","road":"bd Ste-Barbe","zipcode":"29681","locality":"Roscoff"},{"name":"Gordon Ramsay au Trianon","road":"1 bd de la Reine","zipcode":"78000","locality":"Versailles"},{"name":"L'Écrin","road":"10 place de la Concorde","zipcode":"75008","locality":"Paris"},{"name":"La Rotonde","road":"200 avenue du Casino","zipcode":"69890","locality":"LA-TOUR-DE-SALVAGNY"},{"name":"Ima","road":"20 bd de la Tour-d'Auvergne","zipcode":"35000","locality":"Rennes"},{"name":"La Pyramide-Patrick Henriroux","road":"14 Boulevard Fernand Point","zipcode":"38200","locality":"Vienne"},{"name":"Montée","road":"9 r. Léopold-Robert","zipcode":"75014","locality":"Paris"},{"name":"Le Chateaubriand","road":"129 av. Parmentier","zipcode":"75011","locality":"Paris"},{"name":"Le Kintessence","road":"Rue des Clarines","zipcode":"73120","locality":"Courchevel 1850"},{"name":"Le Musigny","road":"90 Avenue de Liege","zipcode":"59300","locality":"Valenciennes"},{"name":"Le Farçon","road":"immeuble la Kalinka","zipcode":"73125","locality":"La Tania"},{"name":"Le Pily","road":"39 Grande-Rue","zipcode":"50100","locality":"Cherbourg-en-Cotentin"},{"name":"Cyril Attrazic","road":"10 rte du Languedoc","zipcode":"48130","locality":"Aumont-Aubrac"},{"name":"Épicure","road":"112 r. Fg St-Honoré","zipcode":"75008","locality":"Paris 08"},{"name":"Toya","road":"av. Jean-Monnet","zipcode":"57380","locality":"Faulquemont"},{"name":"Tour d'Argent","road":"15 quai de la Tournelle","zipcode":"75005","locality":"Paris"},{"name":"Le Cercle","road":"44 bd Lahitolle","zipcode":"18000","locality":"Bourges"},{"name":"Le Cinq","road":"31 av. George V","zipcode":"75008","locality":"Paris 08"},{"name":"L'Hysope","road":"25 r. de l'Aurore","zipcode":"17220","locality":"La Jarrie"},{"name":"Côté Jardin","road":"14 rte de Bourges","zipcode":"45500","locality":"Gien"},{"name":"Au Déjeuner de Sousceyrac","road":"r. Pierre-Benoit","zipcode":"46190","locality":"Sousceyrac"},{"name":"Le France","road":"8 place Cupillard","zipcode":"25130","locality":"VILLERS-LE-LAC"},{"name":"Mon Plaisir","road":"22 lieu-dit Journal","zipcode":"25190","locality":"Chamesol"},{"name":"AM par Alexandre Mazzia","road":"9 rue François Rocca","zipcode":"13008","locality":"Marseille"},{"name":"La Cachette","road":"Rue des Cévennes","zipcode":"26000","locality":"Valence"},{"name":"L'Archeste","road":"79 rue de la Tour","zipcode":"75116","locality":"Paris"},{"name":"Le Cap","road":"71 Boulevard du Général-de-Gaulle","zipcode":"06230","locality":"SAINT-JEAN-CAP-FERRAT"},{"name":"La Fourchette des Ducs","road":"6 r. de la Gare","zipcode":"67210","locality":"Obernai"},{"name":"L'Impertinent","road":"5, rue d'Alsace","zipcode":"64200","locality":"Biarritz"},{"name":"Le Skiff Club","road":"1 av. Louis-Gaume","zipcode":"33260","locality":"La Teste-de-Buch"},{"name":"Entre Vigne et Garrigue","road":"600 route de Saint Bruno","zipcode":"30131","locality":"Pujaut"},{"name":"Il Cortile","road":"11 r. des Franciscains","zipcode":"68100","locality":"Mulhouse"},{"name":"La Bergerie","road":"D999","zipcode":"63490","locality":"Sarpoil"},{"name":"Pierre","road":"7-9 rue Joseph Dufour","zipcode":"71000","locality":"Mâcon"},{"name":"Kasbür","road":"8 Rue de Dettwiller","zipcode":"67700","locality":"Monswiller"},{"name":"La Grande Maison de Bernard Magrez","road":"10 Rue Labottière","zipcode":"33000","locality":"Bordeaux"},{"name":"Auberge de la Mine","road":"le Gué-Plat","zipcode":"61450","locality":"La Ferrière-aux-Étangs"},{"name":"Le Jardin des Plumes","road":"1 Rue du Milieu","zipcode":"27620","locality":"Giverny"},{"name":"William Frachot","road":"5 rue Michelet","zipcode":"21000","locality":"DIJON"},{"name":"Pierre Reboul","road":"260 r. Guillaume-du-Vair","zipcode":"13546","locality":"Aix-en-Provence"},{"name":"La Table Breizh Café","road":"7 quai Thomas","zipcode":"35260","locality":"Cancale"},{"name":"Jean Sulpice","road":"303 rte du Port","zipcode":"74290","locality":"Talloires"},{"name":"La Table de la Ferme","road":"Vallée de l'Ortolo","zipcode":"20100","locality":"Sartène"},{"name":"Le Grand Cap","road":"chemin du Phare","zipcode":"11370","locality":"Leucate"},{"name":"Akrame","road":"7 r. Tronchet","zipcode":"75008","locality":"Paris"},{"name":"Jean Chauvel","road":"33 av. Général-Leclerc","zipcode":"92100","locality":"Boulogne-Billancourt"},{"name":"La Table d'Hôtes - Le Quatrième Mur","road":"2 pl. de la Comédie","zipcode":"33000","locality":"Bordeaux"},{"name":"La Table by La Villa","road":"chemin de Notre-Dame-de-la-Serra","zipcode":"20260","locality":"Calvi"},{"name":"Kei","road":"5 rue du Coq-Héron","zipcode":"75001","locality":"Paris 01"},{"name":"Assa","road":"189 Quai Ulysse Besnard","zipcode":"41000","locality":"Blois"},{"name":"Le Refuge des Gourmets","road":"90 route des Framboises","zipcode":"74140","locality":"Machilly"},{"name":"Le Raisin","road":"2 pl. M. -Poisat","zipcode":"01190","locality":"Pont-de-Vaux"},{"name":"Michel Sarran","road":"21 bd A.-Duportal","zipcode":"31000","locality":"Toulouse"},{"name":"Comice","road":"31 av. de Versailles","zipcode":"75016","locality":"Paris"},{"name":"Armani Ristorante","road":"149 Boulevard Saint-Germain","zipcode":"75006","locality":"Paris"},{"name":"La Grignotière","road":"6 Rue Jean Jaures","zipcode":"59590","locality":"Raismes"},{"name":"Les Voiles d'Or","road":"2 chemin de la Falaise","zipcode":"76200","locality":"Dieppe"},{"name":"Atmosphères","road":"618 Route des Tournelles","zipcode":"73370","locality":"Le Bourget-du-Lac"},{"name":"Auberge de l'Abbaye","road":"47 place des anciens Combattants","zipcode":"01500","locality":"Ambronay"},{"name":"La Maison d'à Côté","road":"17 rue de Chambord","zipcode":"41350","locality":"Montlivault"},{"name":"Meurin","road":"Rue de Lillers","zipcode":"62350","locality":"Busnes"},{"name":"Dominique Bucaille","road":"715 av. des Savels","zipcode":"04100","locality":"Manosque"},{"name":"René et Maxime Meilleur","road":"Saint Marcel","zipcode":"73440","locality":"Saint-Martin-de-Belleville"},{"name":"Le Corot","road":"55 Rue de Versailles","zipcode":"92410","locality":"VILLE-D'AVRAY"},{"name":"Étude","road":"14 r. Bouquet-de-Longchamp","zipcode":"75016","locality":"Paris"},{"name":"La Galinette","road":"23 r. Jean Payra","zipcode":"66000","locality":"Perpignan"},{"name":"Le St-Martin","road":"1 r. du Gén.-Leclerc","zipcode":"25200","locality":"Montbéliard"},{"name":"La Grande Cascade","road":"Bois de Boulogne, Carrefour de Longchamp","zipcode":"75016","locality":"Paris"},{"name":"Alliance","road":"5 Rue de Poissy","zipcode":"75005","locality":"Paris"},{"name":"Rackham","road":"27 pl. Lacaze Duthiers rčs de l'église","zipcode":"29680","locality":"ROSCOFF"},{"name":"Les Genêts","road":"21 bis Rue de l'Océan","zipcode":"85470","locality":"Brem-sur-Mer"},{"name":"Les Loges","road":"6 r. du Boeuf","zipcode":"69005","locality":"Lyon 05"},{"name":"Yam'Tcha","road":"121 r. St-Honoré","zipcode":"75001","locality":"Paris"},{"name":"Pèir","road":"r. de la Combe","zipcode":"84220","locality":"Gordes"},{"name":"Au Vieux Couvent","road":"6 r. des Chanoines","zipcode":"67860","locality":"Rhinau"},{"name":"Garopapilles","road":"62 r. Abbé-de-L'Epée","zipcode":"33000","locality":"Bordeaux"},{"name":"St-James Paris","road":"43 av. Bugeaud","zipcode":"75116","locality":"Paris"},{"name":"Au 14 Février","road":"Le Plâtre-Durand","zipcode":"71570","locality":"Saint-Amour-Bellevue"},{"name":"La Marine","road":"11 r. de Paris","zipcode":"50270","locality":"Barneville-Carteret"},{"name":"Le Relais des Moines","road":"route de Ste-Roseline","zipcode":"83460","locality":"Les Arcs"},{"name":"Les Terrasses d'Uriage","road":"pl. Déesse-Hygie","zipcode":"38410","locality":"Uriage-les-Bains"},{"name":"Henri et Joseph","road":"4 r. Léo-le-Bourgo","zipcode":"56100","locality":"Lorient"},{"name":"Garance","road":"34 r. St-Dominique","zipcode":"75007","locality":"Paris"},{"name":"Les Berceaux","road":"13 rue des Berceaux","zipcode":"51200","locality":"Épernay"},{"name":"114, Faubourg","road":"114 r. Fg St-Honoré","zipcode":"75008","locality":"Paris 08"},{"name":"La Vieille Tour","road":"75 r. de la Tour","zipcode":"22190","locality":"Plérin"},{"name":"Miraflores","road":"60 r. Garibaldi","zipcode":"69006","locality":"Lyon"},{"name":"La Bonne Auberge","road":"15 r. Nationale","zipcode":"57350","locality":"Stiring-Wendel"},{"name":"Laurent","road":"41 av. Gabriel","zipcode":"75008","locality":"Paris"},{"name":"Le Neuvième Art","road":"173 r. Cuvier","zipcode":"69006","locality":"Lyon"},{"name":"Le Clos St-Pierre","road":"pl. de la Mairie","zipcode":"06650","locality":"Le Rouret"},{"name":"Allium","road":"88 bd de Créac'h-Gwen","zipcode":"29000","locality":"Quimper"},{"name":"Gavroche","road":"4 r. Klein","zipcode":"67000","locality":"Strasbourg"},{"name":"Palm Beach","road":"route des Iles Sanguinaires","zipcode":"20000","locality":"Ajaccio"},{"name":"Le Pêché Gourmand","road":"2 rte de Gap","zipcode":"05100","locality":"Briançon"},{"name":"Fontevraud Le Restaurant","road":"38 rue St-Jean-de-l'Habit","zipcode":"49590","locality":"FONTEVRAUD-L'ABBAYE"},{"name":"Val d'Auge","road":"805 av. du Gén.-de-Gaulle","zipcode":"59910","locality":"Bondues"},{"name":"Château de Vauchoux","road":"","zipcode":"70170","locality":"Vauchoux"},{"name":"La Fourchette du Printemps","road":"30 r. du Printemps","zipcode":"75017","locality":"Paris"}]}